[{"OBJECT_NAME":"METOP-C","OBJECT_ID":"2018-087A","EPOCH":"2026-04-04T05:33:11.969856","MEAN_MOTION":14.21506189,"ECCENTRICITY":0.00017956,"INCLINATION":98.6713,"RA_OF_ASC_NODE":155.1642,"ARG_OF_PERICENTER":65.4233,"MEAN_ANOMALY":294.7131,"EPHEMERIS_TYPE":0,"CLASSIFICATION_TYPE":"U","NORAD_CAT_ID":43689,"ELEMENT_SET_NO":999,"REV_AT_EPOCH":38432,"BSTAR":0.00011876447,"MEAN_MOTION_DOT":2.16e-6,"MEAN_MOTION_DDOT":0},{"OBJECT_NAME":"GEO-KOMPSAT-2A","OBJECT_ID":"2018-100A","EPOCH":"2026-04-04T06:08:38.620320","MEAN_MOTION":1.00273648,"ECCENTRICITY":0.00019825,"INCLINATION":0.0548,"RA_OF_ASC_NODE":45.6599,"ARG_OF_PERICENTER":16.4836,"MEAN_ANOMALY":350.8424,"EPHEMERIS_TYPE":0,"CLASSIFICATION_TYPE":"U","NORAD_CAT_ID":43823,"ELEMENT_SET_NO":999,"REV_AT_EPOCH":2688,"BSTAR":0,"MEAN_MOTION_DOT":-3.44e-6,"MEAN_MOTION_DDOT":0},{"OBJECT_NAME":"METEOR-M2 2","OBJECT_ID":"2019-038A","EPOCH":"2026-04-04T06:35:51.797184","MEAN_MOTION":14.24345909,"ECCENTRICITY":6.214e-5,"INCLINATION":98.9115,"RA_OF_ASC_NODE":80.4849,"ARG_OF_PERICENTER":168.1844,"MEAN_ANOMALY":191.9349,"EPHEMERIS_TYPE":0,"CLASSIFICATION_TYPE":"U","NORAD_CAT_ID":44387,"ELEMENT_SET_NO":999,"REV_AT_EPOCH":35077,"BSTAR":0.00023912875,"MEAN_MOTION_DOT":5.07e-6,"MEAN_MOTION_DDOT":0},{"OBJECT_NAME":"ARKTIKA-M 1","OBJECT_ID":"2021-016A","EPOCH":"2026-03-27T05:55:38.244288","MEAN_MOTION":2.00616454,"ECCENTRICITY":0.7253959,"INCLINATION":63.2179,"RA_OF_ASC_NODE":69.3783,"ARG_OF_PERICENTER":269.5617,"MEAN_ANOMALY":15.0995,"EPHEMERIS_TYPE":0,"CLASSIFICATION_TYPE":"U","NORAD_CAT_ID":47719,"ELEMENT_SET_NO":999,"REV_AT_EPOCH":3714,"BSTAR":0,"MEAN_MOTION_DOT":-9.8e-7,"MEAN_MOTION_DDOT":0},{"OBJECT_NAME":"FENGYUN 3E","OBJECT_ID":"2021-062A","EPOCH":"2026-04-04T06:45:39.057984","MEAN_MOTION":14.19898245,"ECCENTRICITY":9.79e-5,"INCLINATION":98.7509,"RA_OF_ASC_NODE":98.5107,"ARG_OF_PERICENTER":345.7046,"MEAN_ANOMALY":14.4103,"EPHEMERIS_TYPE":0,"CLASSIFICATION_TYPE":"U","NORAD_CAT_ID":49008,"ELEMENT_SET_NO":999,"REV_AT_EPOCH":24609,"BSTAR":0.00019299331,"MEAN_MOTION_DOT":3.66e-6,"MEAN_MOTION_DDOT":0},{"OBJECT_NAME":"GOES 18","OBJECT_ID":"2022-021A","EPOCH":"2026-04-04T05:50:07.156032","MEAN_MOTION":1.00274048,"ECCENTRICITY":8.101e-5,"INCLINATION":0.0488,"RA_OF_ASC_NODE":36.1429,"ARG_OF_PERICENTER":39.654,"MEAN_ANOMALY":67.298,"EPHEMERIS_TYPE":0,"CLASSIFICATION_TYPE":"U","NORAD_CAT_ID":51850,"ELEMENT_SET_NO":999,"REV_AT_EPOCH":585,"BSTAR":0,"MEAN_MOTION_DOT":9.6e-7,"MEAN_MOTION_DDOT":0},{"OBJECT_NAME":"NOAA 21 (JPSS-2)","OBJECT_ID":"2022-150A","EPOCH":"2026-04-04T05:41:53.244384","MEAN_MOTION":14.19559406,"ECCENTRICITY":0.0002658,"INCLINATION":98.7585,"RA_OF_ASC_NODE":34.2151,"ARG_OF_PERICENTER":62.1906,"MEAN_ANOMALY":297.9539,"EPHEMERIS_TYPE":0,"CLASSIFICATION_TYPE":"U","NORAD_CAT_ID":54234,"ELEMENT_SET_NO":999,"REV_AT_EPOCH":17605,"BSTAR":9.5270025e-5,"MEAN_MOTION_DOT":1.57e-6,"MEAN_MOTION_DDOT":0},{"OBJECT_NAME":"METEOSAT-12 (MTG-I1)","OBJECT_ID":"2022-170C","EPOCH":"2026-04-04T04:13:43.663584","MEAN_MOTION":1.00274564,"ECCENTRICITY":0.0001563,"INCLINATION":0.7394,"RA_OF_ASC_NODE":26.45,"ARG_OF_PERICENTER":302.1291,"MEAN_ANOMALY":287.0346,"EPHEMERIS_TYPE":0,"CLASSIFICATION_TYPE":"U","NORAD_CAT_ID":54743,"ELEMENT_SET_NO":999,"REV_AT_EPOCH":1223,"BSTAR":0,"MEAN_MOTION_DOT":-7.0e-8,"MEAN_MOTION_DDOT":0},{"OBJECT_NAME":"TIANMU-1 03","OBJECT_ID":"2023-039A","EPOCH":"2026-04-04T20:33:14.688000","MEAN_MOTION":15.45205407,"ECCENTRICITY":0.0002954,"INCLINATION":97.5206,"RA_OF_ASC_NODE":266.0828,"ARG_OF_PERICENTER":25.5343,"MEAN_ANOMALY":334.6051,"EPHEMERIS_TYPE":0,"CLASSIFICATION_TYPE":"U","NORAD_CAT_ID":55973,"ELEMENT_SET_NO":999,"REV_AT_EPOCH":16950,"BSTAR":0.00039391,"MEAN_MOTION_DOT":0.00018632,"MEAN_MOTION_DDOT":0},{"OBJECT_NAME":"TIANMU-1 04","OBJECT_ID":"2023-039B","EPOCH":"2026-04-04T19:23:06.863712","MEAN_MOTION":15.45730106,"ECCENTRICITY":0.0003465,"INCLINATION":97.5138,"RA_OF_ASC_NODE":265.1866,"ARG_OF_PERICENTER":17.601,"MEAN_ANOMALY":342.5358,"EPHEMERIS_TYPE":0,"CLASSIFICATION_TYPE":"U","NORAD_CAT_ID":55974,"ELEMENT_SET_NO":999,"REV_AT_EPOCH":16950,"BSTAR":0.00047616,"MEAN_MOTION_DOT":0.00022962,"MEAN_MOTION_DDOT":0},{"OBJECT_NAME":"TIANMU-1 05","OBJECT_ID":"2023-039C","EPOCH":"2026-04-04T20:01:00.103008","MEAN_MOTION":15.45145904,"ECCENTRICITY":0.0003247,"INCLINATION":97.5184,"RA_OF_ASC_NODE":265.7015,"ARG_OF_PERICENTER":47.9882,"MEAN_ANOMALY":312.1643,"EPHEMERIS_TYPE":0,"CLASSIFICATION_TYPE":"U","NORAD_CAT_ID":55975,"ELEMENT_SET_NO":999,"REV_AT_EPOCH":16948,"BSTAR":0.00047015,"MEAN_MOTION_DOT":0.00022221,"MEAN_MOTION_DDOT":0},{"OBJECT_NAME":"TIANMU-1 06","OBJECT_ID":"2023-039D","EPOCH":"2026-04-04T19:22:31.820736","MEAN_MOTION":15.45664957,"ECCENTRICITY":0.0003413,"INCLINATION":97.5193,"RA_OF_ASC_NODE":266.2384,"ARG_OF_PERICENTER":40.4967,"MEAN_ANOMALY":319.6535,"EPHEMERIS_TYPE":0,"CLASSIFICATION_TYPE":"U","NORAD_CAT_ID":55976,"ELEMENT_SET_NO":999,"REV_AT_EPOCH":16950,"BSTAR":0.00046831,"MEAN_MOTION_DOT":0.00022531,"MEAN_MOTION_DDOT":0},{"OBJECT_NAME":"FENGYUN 3G","OBJECT_ID":"2023-055A","EPOCH":"2026-04-04T19:49:25.225824","MEAN_MOTION":15.53575282,"ECCENTRICITY":0.0004078,"INCLINATION":49.9945,"RA_OF_ASC_NODE":4.3006,"ARG_OF_PERICENTER":44.8627,"MEAN_ANOMALY":315.267,"EPHEMERIS_TYPE":0,"CLASSIFICATION_TYPE":"U","NORAD_CAT_ID":56232,"ELEMENT_SET_NO":999,"REV_AT_EPOCH":16860,"BSTAR":0.00061476,"MEAN_MOTION_DOT":0.00039679,"MEAN_MOTION_DDOT":0},{"OBJECT_NAME":"METEOR-M2 3","OBJECT_ID":"2023-091A","EPOCH":"2026-04-04T21:14:26.336256","MEAN_MOTION":14.24040594,"ECCENTRICITY":0.0004488,"INCLINATION":98.6164,"RA_OF_ASC_NODE":151.3377,"ARG_OF_PERICENTER":38.4829,"MEAN_ANOMALY":321.667,"EPHEMERIS_TYPE":0,"CLASSIFICATION_TYPE":"U","NORAD_CAT_ID":57166,"ELEMENT_SET_NO":999,"REV_AT_EPOCH":14408,"BSTAR":3.449e-5,"MEAN_MOTION_DOT":3.6e-7,"MEAN_MOTION_DDOT":0},{"OBJECT_NAME":"TIANMU-1 07","OBJECT_ID":"2023-101A","EPOCH":"2026-04-04T19:47:08.426112","MEAN_MOTION":15.29394653,"ECCENTRICITY":0.0004464,"INCLINATION":97.2667,"RA_OF_ASC_NODE":147.1854,"ARG_OF_PERICENTER":80.2987,"MEAN_ANOMALY":279.8757,"EPHEMERIS_TYPE":0,"CLASSIFICATION_TYPE":"U","NORAD_CAT_ID":57399,"ELEMENT_SET_NO":999,"REV_AT_EPOCH":15043,"BSTAR":0.00037564,"MEAN_MOTION_DOT":0.00010641,"MEAN_MOTION_DDOT":0},{"OBJECT_NAME":"TIANMU-1 08","OBJECT_ID":"2023-101B","EPOCH":"2026-04-04T12:43:41.079648","MEAN_MOTION":15.29475906,"ECCENTRICITY":0.0005376,"INCLINATION":97.2662,"RA_OF_ASC_NODE":146.6773,"ARG_OF_PERICENTER":60.6646,"MEAN_ANOMALY":299.5131,"EPHEMERIS_TYPE":0,"CLASSIFICATION_TYPE":"U","NORAD_CAT_ID":57400,"ELEMENT_SET_NO":999,"REV_AT_EPOCH":15038,"BSTAR":1.8611e-5,"MEAN_MOTION_DOT":4.59e-6,"MEAN_MOTION_DDOT":0},{"OBJECT_NAME":"TIANMU-1 09","OBJECT_ID":"2023-101C","EPOCH":"2026-04-04T20:11:16.832256","MEAN_MOTION":15.29414493,"ECCENTRICITY":0.0004906,"INCLINATION":97.2614,"RA_OF_ASC_NODE":146.4375,"ARG_OF_PERICENTER":78.283,"MEAN_ANOMALY":281.8961,"EPHEMERIS_TYPE":0,"CLASSIFICATION_TYPE":"U","NORAD_CAT_ID":57401,"ELEMENT_SET_NO":999,"REV_AT_EPOCH":15043,"BSTAR":0.00033442,"MEAN_MOTION_DOT":9.47e-5,"MEAN_MOTION_DDOT":0}]
