METOP-C                 
1 43689U 18087A   26094.23138854  .00000216  00000+0  11876-3 0  9993
2 43689  98.6713 155.1642 0001795  65.4233 294.7131 14.21506189384329
GEO-KOMPSAT-2A          
1 43823U 18100A   26094.25600255 -.00000344  00000+0  00000+0 0  9996
2 43823   0.0548  45.6599 0001982  16.4836 350.8424  1.00273648 26886
METEOR-M2 2             
1 44387U 19038A   26094.27490506  .00000507  00000+0  23913-3 0  9993
2 44387  98.9115  80.4849 0000621 168.1844 191.9349 14.24345909350774
ARKTIKA-M 1             
1 47719U 21016A   26086.24697042 -.00000098  00000+0  00000+0 0  9990
2 47719  63.2179  69.3783 7253959 269.5617  15.0995  2.00616454 37142
FENGYUN 3E              
1 49008U 21062A   26094.28170206  .00000366  00000+0  19299-3 0  9996
2 49008  98.7509  98.5107 0000979 345.7046  14.4103 14.19898245246090
GOES 18                 
1 51850U 22021A   26094.24313838  .00000096  00000+0  00000+0 0  9992
2 51850   0.0488  36.1429 0000810  39.6540  67.2980  1.00274048  5858
NOAA 21 (JPSS-2)        
1 54234U 22150A   26094.23742181  .00000157  00000+0  95270-4 0  9996
2 54234  98.7585  34.2151 0002658  62.1906 297.9539 14.19559406176050
METEOSAT-12 (MTG-I1)    
1 54743U 22170C   26094.17619981 -.00000007  00000+0  00000+0 0  9994
2 54743   0.7394  26.4500 0001563 302.1291 287.0346  1.00274564 12235
TIANMU-1 03             
1 55973U 23039A   26094.85642000  .00018632  00000+0  39391-3 0  9999
2 55973  97.5206 266.0828 0002954  25.5343 334.6051 15.45205407169500
TIANMU-1 04             
1 55974U 23039B   26094.80771833  .00022962  00000+0  47616-3 0  9992
2 55974  97.5138 265.1866 0003465  17.6010 342.5358 15.45730106169505
TIANMU-1 05             
1 55975U 23039C   26094.83402897  .00022221  00000+0  47015-3 0  9998
2 55975  97.5184 265.7015 0003247  47.9882 312.1643 15.45145904169483
TIANMU-1 06             
1 55976U 23039D   26094.80731274  .00022531  00000+0  46831-3 0  9999
2 55976  97.5193 266.2384 0003413  40.4967 319.6535 15.45664957169505
FENGYUN 3G              
1 56232U 23055A   26094.82598641  .00039679  00000+0  61476-3 0  9997
2 56232  49.9945   4.3006 0004078  44.8627 315.2670 15.53575282168601
METEOR-M2 3             
1 57166U 23091A   26094.88502704  .00000036  00000+0  34490-4 0  9997
2 57166  98.6164 151.3377 0004488  38.4829 321.6670 14.24040594144081
TIANMU-1 07             
1 57399U 23101A   26094.82440308  .00010641  00000+0  37564-3 0  9999
2 57399  97.2667 147.1854 0004464  80.2987 279.8757 15.29394653150439
TIANMU-1 08             
1 57400U 23101B   26094.53033657  .00000459  00000+0  18611-4 0  9994
2 57400  97.2662 146.6773 0005376  60.6646 299.5131 15.29475906150388
TIANMU-1 09             
1 57401U 23101C   26094.84116704  .00009470  00000+0  33442-3 0  9994
2 57401  97.2614 146.4375 0004906  78.2830 281.8961 15.29414493150435
